{
  "type": "FeatureCollection",
  "features": [
    {
      "type": "Feature",
      "properties": {
        "norad_id": 31952,
        "name": "FENGYUN 1C DEB",
        "group": "fengyun-1c-debris",
        "lat": -16.76931017867077,
        "lon": 113.47254781182106,
        "alt_km": 690.9155359212937,
        "timestamp": "2025-12-19T04:59:48.590957+00:00",
        "meta_object_name": "FENGYUN 1C DEB",
        "meta_object_id": "1999-025CND",
        "meta_epoch": "2025-12-18T14:12:19.368576",
        "meta_mean_motion": 14.53519617,
        "meta_eccentricity": 0.01140991,
        "meta_inclination": 98.9557,
        "meta_ra_of_asc_node": 110.0904,
        "meta_arg_of_pericenter": 274.7014,
        "meta_mean_anomaly": 84.1157,
        "meta_ephemeris_type": 0,
        "meta_classification_type": "U",
        "meta_norad_cat_id": 31952,
        "meta_element_set_no": 999,
        "meta_rev_at_epoch": 97294,
        "meta_bstar": 0.00039311393,
        "meta_mean_motion_dot": 1.729e-05,
        "meta_mean_motion_ddot": 0,
        "tle_line1": "1 31952U 99025CND 25352.59189084  .00001729  00000+0  39311-3 0  9994",
        "tle_line2": "2 31952  98.9557 110.0904 0114099 274.7014  84.1157 14.53519617972948"
      },
      "geometry": {
        "type": "Point",
        "coordinates": [
          113.47254781182106,
          -16.76931017867077
        ]
      }
    },
    {
      "type": "Feature",
      "properties": {
        "norad_id": 31955,
        "name": "FENGYUN 1C DEB",
        "group": "fengyun-1c-debris",
        "lat": -80.17523930220759,
        "lon": -19.95532574771931,
        "alt_km": 695.7959931850955,
        "timestamp": "2025-12-19T04:59:48.590967+00:00",
        "meta_object_name": "FENGYUN 1C DEB",
        "meta_object_id": "1999-025CNG",
        "meta_epoch": "2025-12-18T11:56:12.080256",
        "meta_mean_motion": 14.63986732,
        "meta_eccentricity": 0.00434448,
        "meta_inclination": 99.2812,
        "meta_ra_of_asc_node": 230.03,
        "meta_arg_of_pericenter": 163.1986,
        "meta_mean_anomaly": 318.8693,
        "meta_ephemeris_type": 0,
        "meta_classification_type": "U",
        "meta_norad_cat_id": 31955,
        "meta_element_set_no": 999,
        "meta_rev_at_epoch": 96641,
        "meta_bstar": 0.0013577477,
        "meta_mean_motion_dot": 7.157e-05,
        "meta_mean_motion_ddot": 0,
        "tle_line1": "1 31955U 99025CNG 25352.49736204  .00007157  00000+0  13577-2 0  9994",
        "tle_line2": "2 31955  99.2812 230.0300 0043444 163.1986 318.8693 14.63986732966410"
      },
      "geometry": {
        "type": "Point",
        "coordinates": [
          -19.95532574771931,
          -80.17523930220759
        ]
      }
    },
    {
      "type": "Feature",
      "properties": {
        "norad_id": 31959,
        "name": "FENGYUN 1C DEB",
        "group": "fengyun-1c-debris",
        "lat": -79.65654526890795,
        "lon": -80.61923287223624,
        "alt_km": 758.2084069251232,
        "timestamp": "2025-12-19T04:59:48.590977+00:00",
        "meta_object_name": "FENGYUN 1C DEB",
        "meta_object_id": "1999-025CNL",
        "meta_epoch": "2025-12-18T09:28:12.506016",
        "meta_mean_motion": 14.46847866,
        "meta_eccentricity": 0.00271233,
        "meta_inclination": 98.5114,
        "meta_ra_of_asc_node": 223.4289,
        "meta_arg_of_pericenter": 137.4533,
        "meta_mean_anomaly": 222.8767,
        "meta_ephemeris_type": 0,
        "meta_classification_type": "U",
        "meta_norad_cat_id": 31959,
        "meta_element_set_no": 999,
        "meta_rev_at_epoch": 64435,
        "meta_bstar": 0.0021054195,
        "meta_mean_motion_dot": 7.63e-05,
        "meta_mean_motion_ddot": 0,
        "tle_line1": "1 31959U 99025CNL 25352.39458919  .00007630  00000+0  21054-2 0  9996",
        "tle_line2": "2 31959  98.5114 223.4289 0027123 137.4533 222.8767 14.46847866644358"
      },
      "geometry": {
        "type": "Point",
        "coordinates": [
          -80.61923287223624,
          -79.65654526890795
        ]
      }
    },
    {
      "type": "Feature",
      "properties": {
        "norad_id": 31964,
        "name": "FENGYUN 1C DEB",
        "group": "fengyun-1c-debris",
        "lat": -29.93216353556651,
        "lon": 122.20242990330826,
        "alt_km": 688.0568911761002,
        "timestamp": "2025-12-19T04:59:48.590988+00:00",
        "meta_object_name": "FENGYUN 1C DEB",
        "meta_object_id": "1999-025CNR",
        "meta_epoch": "2025-12-18T07:43:56.657856",
        "meta_mean_motion": 14.58617923,
        "meta_eccentricity": 0.00284532,
        "meta_inclination": 98.701,
        "meta_ra_of_asc_node": 116.2166,
        "meta_arg_of_pericenter": 12.48,
        "meta_mean_anomaly": 347.7096,
        "meta_ephemeris_type": 0,
        "meta_classification_type": "U",
        "meta_norad_cat_id": 31964,
        "meta_element_set_no": 999,
        "meta_rev_at_epoch": 67591,
        "meta_bstar": 0.002099061,
        "meta_mean_motion_dot": 9.789e-05,
        "meta_mean_motion_ddot": 0,
        "tle_line1": "1 31964U 99025CNR 25352.32218354  .00009789  00000+0  20991-2 0  9998",
        "tle_line2": "2 31964  98.7010 116.2166 0028453  12.4800 347.7096 14.58617923675910"
      },
      "geometry": {
        "type": "Point",
        "coordinates": [
          122.20242990330826,
          -29.93216353556651
        ]
      }
    },
    {
      "type": "Feature",
      "properties": {
        "norad_id": 31966,
        "name": "FENGYUN 1C DEB",
        "group": "fengyun-1c-debris",
        "lat": 22.479764108862515,
        "lon": -29.780283630834692,
        "alt_km": 675.9492500097967,
        "timestamp": "2025-12-19T04:59:48.590999+00:00",
        "meta_object_name": "FENGYUN 1C DEB",
        "meta_object_id": "1999-025CNT",
        "meta_epoch": "2025-12-17T16:16:36.229440",
        "meta_mean_motion": 14.67608917,
        "meta_eccentricity": 0.00860626,
        "meta_inclination": 99.0168,
        "meta_ra_of_asc_node": 144.7692,
        "meta_arg_of_pericenter": 259.558,
        "meta_mean_anomaly": 99.5915,
        "meta_ephemeris_type": 0,
        "meta_classification_type": "U",
        "meta_norad_cat_id": 31966,
        "meta_element_set_no": 999,
        "meta_rev_at_epoch": 65815,
        "meta_bstar": 0.00097782507,
        "meta_mean_motion_dot": 5.813e-05,
        "meta_mean_motion_ddot": 0,
        "tle_line1": "1 31966U 99025CNT 25351.67819710  .00005813  00000+0  97783-3 0  9998",
        "tle_line2": "2 31966  99.0168 144.7692 0086062 259.5580  99.5915 14.67608917658151"
      },
      "geometry": {
        "type": "Point",
        "coordinates": [
          -29.780283630834692,
          22.479764108862515
        ]
      }
    },
    {
      "type": "Feature",
      "properties": {
        "norad_id": 31972,
        "name": "FENGYUN 1C DEB",
        "group": "fengyun-1c-debris",
        "lat": -60.02471133607094,
        "lon": -161.3584591846354,
        "alt_km": 912.3825314426795,
        "timestamp": "2025-12-19T04:59:48.591009+00:00",
        "meta_object_name": "FENGYUN 1C DEB",
        "meta_object_id": "1999-025CNZ",
        "meta_epoch": "2025-12-18T02:23:29.106816",
        "meta_mean_motion": 14.07516384,
        "meta_eccentricity": 0.00767042,
        "meta_inclination": 99.2111,
        "meta_ra_of_asc_node": 33.8515,
        "meta_arg_of_pericenter": 16.9937,
        "meta_mean_anomaly": 10.8926,
        "meta_ephemeris_type": 0,
        "meta_classification_type": "U",
        "meta_norad_cat_id": 31972,
        "meta_element_set_no": 999,
        "meta_rev_at_epoch": 95036,
        "meta_bstar": 0.00011364745,
        "meta_mean_motion_dot": 1.5e-06,
        "meta_mean_motion_ddot": 0,
        "tle_line1": "1 31972U 99025CNZ 25352.09964244  .00000150  00000+0  11365-3 0  9996",
        "tle_line2": "2 31972  99.2111  33.8515 0076704  16.9937  10.8926 14.07516384950369"
      },
      "geometry": {
        "type": "Point",
        "coordinates": [
          -161.3584591846354,
          -60.02471133607094
        ]
      }
    },
    {
      "type": "Feature",
      "properties": {
        "norad_id": 31974,
        "name": "FENGYUN 1C DEB",
        "group": "fengyun-1c-debris",
        "lat": 35.79964198824566,
        "lon": -169.80823583984954,
        "alt_km": 829.5756339670352,
        "timestamp": "2025-12-19T04:59:48.591019+00:00",
        "meta_object_name": "FENGYUN 1C DEB",
        "meta_object_id": "1999-025CPB",
        "meta_epoch": "2025-12-18T11:31:23.860128",
        "meta_mean_motion": 14.29591099,
        "meta_eccentricity": 0.00713874,
        "meta_inclination": 98.3789,
        "meta_ra_of_asc_node": 3.3895,
        "meta_arg_of_pericenter": 285.6778,
        "meta_mean_anomaly": 73.6537,
        "meta_ephemeris_type": 0,
        "meta_classification_type": "U",
        "meta_norad_cat_id": 31974,
        "meta_element_set_no": 999,
        "meta_rev_at_epoch": 69504,
        "meta_bstar": 0.0020701647,
        "meta_mean_motion_dot": 5.407e-05,
        "meta_mean_motion_ddot": 0,
        "tle_line1": "1 31974U 99025CPB 25352.48013727  .00005407  00000+0  20702-2 0  9996",
        "tle_line2": "2 31974  98.3789   3.3895 0071387 285.6778  73.6537 14.29591099695041"
      },
      "geometry": {
        "type": "Point",
        "coordinates": [
          -169.80823583984954,
          35.79964198824566
        ]
      }
    }
  ]
}